NORAD_CAT_ID,OBJECT_NAME,OBJECT_TYPE,EPOCH,MEAN_MOTION,ECCENTRICITY,INCLINATION,RA_OF_ASC_NODE,ARG_OF_PERICENTER,MEAN_ANOMALY,BSTAR,MEAN_MOTION_DOT,MEAN_MOTION_DDOT,TLE_LINE0,TLE_LINE1,TLE_LINE2,SEMIMAJOR_AXIS,PERIOD,APOGEE,PERIGEE,DECAYED
54086.0,STARLINK-5211,PAYLOAD,2023-07-03 17:41:16,15.08854039,0.0001197,53.2173,38.4024,79.6851,280.4276,-0.00019267,-3.354e-05,0.0,0 STARLINK-5211,1 54086U 22136AM  23184.73699697 -.00003354  00000-0 -19267-3 0  9996,2 54086  53.2173  38.4024 0001197  79.6851 280.4276 15.08854039 39724,6917.837,95.437,540.531,538.874,0.0
54086.0,STARLINK-5211,PAYLOAD,2023-07-03 20:52:02,15.0884161,0.0001086,53.2173,37.8075,87.3101,272.8016,4.8912e-05,4.91e-06,0.0,0 STARLINK-5211,1 54086U 22136AM  23184.86947850  .00000491  00000-0  48912-4 0  9994,2 54086  53.2173  37.8075 0001086  87.3101 272.8016 15.08841610 39744,6917.875,95.437,540.492,538.989,0.0
54086.0,STARLINK-5211,PAYLOAD,2023-07-05 06:15:09,15.08839217,9.82e-05,53.2174,31.5644,75.7966,284.3135,-2.6696e-05,-7.13e-06,0.0,0 STARLINK-5211,1 54086U 22136AM  23186.26052229 -.00000713  00000-0 -26696-4 0  9991,2 54086  53.2174  31.5644 0000982  75.7966 284.3135 15.08839217 39955,6917.883,95.438,540.427,539.068,0.0
54086.0,STARLINK-5211,PAYLOAD,2023-07-06 14:02:52,15.08832837,0.0001142,53.2179,25.616,75.9607,284.1512,5.2258e-06,-2.05e-06,0.0,0 STARLINK-5211,1 54086U 22136AM  23187.58532949 -.00000205  00000-0  52258-5 0  9998,2 54086  53.2179  25.6160 0001142  75.9607 284.1512 15.08832837 40152,6917.902,95.438,540.557,538.977,0.0
54086.0,STARLINK-5211,PAYLOAD,2023-07-06 21:59:47,15.0883861,0.0001104,53.2178,24.1293,78.631,281.4806,5.0604e-05,5.18e-06,0.0,0 STARLINK-5211,1 54086U 22136AM  23187.91652473  .00000518  00000-0  50604-4 0  9998,2 54086  53.2178  24.1293 0001104  78.6310 281.4806 15.08838610 40208,6917.885,95.438,540.513,538.986,0.0
54086.0,STARLINK-5211,PAYLOAD,2023-07-08 05:47:30,15.08844415,0.0001134,53.218,18.1825,79.4962,280.6158,7.0875e-05,8.4e-06,0.0,0 STARLINK-5211,1 54086U 22136AM  23189.24132217  .00000840  00000-0  70875-4 0  9995,2 54086  53.2180  18.1825 0001134  79.4962 280.6158 15.08844415 40403,6917.867,95.437,540.516,538.947,0.0
54086.0,STARLINK-5211,PAYLOAD,2023-07-08 18:30:35,15.08839688,0.0001165,53.2182,15.804,88.4924,271.6202,1.8378e-05,5e-08,0.0,0 STARLINK-5211,1 54086U 22136AM  23189.77124775  .00000005  00000-0  18378-4 0  9996,2 54086  53.2182  15.8040 0001165  88.4924 271.6202 15.08839688 40484,6917.881,95.438,540.552,538.94,0.0
54086.0,STARLINK-5211,PAYLOAD,2023-07-10 11:50:37,15.08839606,0.0001272,53.2189,8.0732,80.8185,279.2951,9.5105e-05,1.226e-05,0.0,0 STARLINK-5211,1 54086U 22136AM  23191.49348621  .00001226  00000-0  95105-4 0  9995,2 54086  53.2189   8.0732 0001272  80.8185 279.2951 15.08839606 40741,6917.882,95.438,540.627,538.867,0.0
54086.0,STARLINK-5211,PAYLOAD,2023-07-10 19:47:32,15.08846043,0.0001126,53.2181,6.5852,89.438,270.6741,0.00010957,1.457e-05,0.0,0 STARLINK-5211,1 54086U 22136AM  23191.82468062  .00001457  00000-0  10957-3 0  9991,2 54086  53.2181   6.5852 0001126  89.4380 270.6741 15.08846043 40799,6917.862,95.437,540.506,538.948,0.0
54086.0,STARLINK-5211,PAYLOAD,2023-07-11 18:02:57,15.08829945,0.0001152,53.2182,2.4216,95.0787,265.0337,0.00018664,2.683e-05,0.0,0 STARLINK-5211,1 54086U 22136AM  23192.75204932  .00002683  00000-0  18664-3 0  9993,2 54086  53.2182   2.4216 0001152  95.0787 265.0337 15.08829945 40939,6917.911,95.438,540.573,538.979,0.0
54086.0,STARLINK-5211,PAYLOAD,2023-07-12 17:53:43,15.08841809,9.83e-05,53.2171,357.9609,92.8241,267.2864,5.9052e-05,6.52e-06,0.0,0 STARLINK-5211,1 54086U 22136AM  23193.74564475  .00000652  00000-0  59052-4 0  9995,2 54086  53.2171 357.9609 0000983  92.8241 267.2864 15.08841809 41081,6917.875,95.437,540.42,539.06,0.0
54086.0,STARLINK-5211,PAYLOAD,2023-07-13 17:44:31,15.08836016,0.0001046,53.2194,353.5035,95.1984,264.9128,1.0527e-05,-1.2e-06,0.0,0 STARLINK-5211,1 54086U 22136AM  23194.73925158 -.00000120  00000-0  10527-4 0  9999,2 54086  53.2194 353.5035 0001046  95.1984 264.9128 15.08836016 41230,6917.893,95.438,540.481,539.034,0.0
54086.0,STARLINK-5211,PAYLOAD,2023-07-14 17:35:17,15.08847041,8.87e-05,53.2193,349.0434,101.5936,258.5156,0.00011455,1.536e-05,0.0,0 STARLINK-5211,1 54086U 22136AM  23195.73284387  .00001536  00000-0  11455-3 0  9993,2 54086  53.2193 349.0434 0000887 101.5936 258.5156 15.08847041 41389,6917.859,95.437,540.337,539.11,0.0
54086.0,STARLINK-5211,PAYLOAD,2023-07-15 17:26:05,15.08837393,0.000107,53.2189,344.5808,69.9354,290.1753,7.0736e-05,8.38e-06,0.0,0 STARLINK-5211,1 54086U 22136AM  23196.72645561  .00000838  00000-0  70736-4 0  9990,2 54086  53.2189 344.5808 0001070  69.9354 290.1753 15.08837393 41536,6917.888,95.438,540.494,539.013,0.0
54086.0,STARLINK-5211,PAYLOAD,2023-07-17 15:32:16,15.0884894,8.71e-05,53.2176,335.9568,87.6725,272.4366,0.00011841,1.598e-05,0.0,0 STARLINK-5211,1 54086U 22136AM  23198.64740862  .00001598  00000-0  11841-3 0  9998,2 54086  53.2176 335.9568 0000871  87.6725 272.4366 15.08848940 41821,6917.853,95.437,540.321,539.116,0.0
54086.0,STARLINK-5211,PAYLOAD,2023-07-17 20:18:24,15.08857736,9.77e-05,53.2184,335.0649,85.2732,274.8372,0.00020036,2.904e-05,0.0,0 STARLINK-5211,1 54086U 22136AM  23198.84612078  .00002904  00000-0  20036-3 0  9995,2 54086  53.2184 335.0649 0000977  85.2732 274.8372 15.08857736 41859,6917.826,95.436,540.367,539.015,0.0
54086.0,STARLINK-5211,PAYLOAD,2023-07-18 09:01:31,15.0883786,0.0001165,53.2175,332.6861,79.022,281.0903,9.1662e-05,1.171e-05,0.0,0 STARLINK-5211,1 54086U 22136AM  23199.37605743  .00001171  00000-0  91662-4 0  9994,2 54086  53.2175 332.6861 0001165  79.0220 281.0903 15.08837860 41936,6917.887,95.438,540.558,538.946,0.0
54086.0,STARLINK-5211,PAYLOAD,2023-07-18 16:58:26,15.08847514,0.0001112,53.2172,331.1991,83.0686,277.0432,0.00015864,2.238e-05,0.0,0 STARLINK-5211,1 54086U 22136AM  23199.70725194  .00002238  00000-0  15864-3 0  9998,2 54086  53.2172 331.1991 0001112  83.0686 277.0432 15.08847514 41988,6917.857,95.437,540.492,538.953,0.0
54086.0,STARLINK-5211,PAYLOAD,2023-07-19 08:52:18,15.08834186,0.0001317,53.2193,328.2197,121.8506,238.2614,-7.0335e-05,-1.407e-05,0.0,0 STARLINK-5211,1 54086U 22136AM  23200.36965690 -.00001407  00000-0 -70335-4 0  9994,2 54086  53.2193 328.2197 0001317 121.8506 238.2614 15.08834186 42089,6917.898,95.438,540.674,538.852,0.0
54086.0,STARLINK-5211,PAYLOAD,2023-07-20 11:53:51,15.08842188,0.0001202,53.2189,323.1678,112.8302,247.2817,0.00022433,3.284e-05,0.0,0 STARLINK-5211,1 54086U 22136AM  23201.49574047  .00003284  00000-0  22433-3 0  9999,2 54086  53.2189 323.1678 0001202 112.8302 247.2817 15.08842188 42254,6917.874,95.437,540.57,538.907,0.0
54086.0,STARLINK-5211,PAYLOAD,2023-07-20 16:40:01,15.08848812,0.0001211,53.2189,322.2752,110.3595,249.7527,0.00032694,4.92e-05,0.0,0 STARLINK-5211,1 54086U 22136AM  23201.69445800  .00004920  00000-0  32694-3 0  9993,2 54086  53.2189 322.2752 0001211 110.3595 249.7527 15.08848812 42282,6917.853,95.437,540.556,538.881,0.0
54086.0,STARLINK-5211,PAYLOAD,2023-07-21 18:06:11,15.08846874,0.000127,53.2184,317.5183,103.2492,256.8641,0.00015567,2.191e-05,0.0,0 STARLINK-5211,1 54086U 22136AM  23202.75429638  .00002191  00000-0  15567-3 0  9990,2 54086  53.2184 317.5183 0001270 103.2492 256.8641 15.08846874 42444,6917.859,95.437,540.603,538.846,0.0
54086.0,STARLINK-5211,PAYLOAD,2023-07-24 06:30:51,15.0883981,0.0001378,53.2156,306.2227,73.9844,286.13,0.00017644,2.521e-05,0.0,0 STARLINK-5211,1 54086U 22136AM  23205.27142527  .00002521  00000-0  17644-3 0  9994,2 54086  53.2156 306.2227 0001378  73.9844 286.1300 15.08839810 42350,6917.881,95.438,540.699,538.793,0.0
54086.0,STARLINK-5211,PAYLOAD,2023-07-25 11:07:47,15.08841321,0.0001958,53.2146,300.8666,110.2116,249.9086,0.00013389,1.843e-05,0.0,0 STARLINK-5211,1 54086U 22136AM  23206.46374446  .00001843  00000-0  13389-3 0  9991,2 54086  53.2146 300.8666 0001958 110.2116 249.9086 15.08841321 43008,6917.876,95.437,541.096,538.387,0.0
54086.0,STARLINK-5211,PAYLOAD,2023-07-26 06:12:24,15.08861745,0.0001067,53.2169,297.3013,93.2404,266.8711,-0.00039169,-6.52e-05,0.0,0 STARLINK-5211,1 54086U 22136AM  23207.25861500 -.00006520  00000-0 -39169-3 0  9994,2 54086  53.2169 297.3013 0001067  93.2404 266.8711 15.08861745 42655,6917.814,95.436,540.417,538.941,0.0
54086.0,STARLINK-5211,PAYLOAD,2023-07-26 09:23:13,15.08807059,0.000163,53.216,296.7069,89.6346,270.4833,0.0012864,0.00020226,0.0,0 STARLINK-5211,1 54086U 22136AM  23207.39112384  .00020226  00000-0  12864-2 0  9997,2 54086  53.2160 296.7069 0001630  89.6346 270.4833 15.08807059 42676,6917.981,95.44,540.974,538.718,0.0
54086.0,STARLINK-5211,PAYLOAD,2023-07-27 06:03:11,15.08845043,0.0001255,53.2174,292.8422,98.0671,262.0464,0.00015603,2.197e-05,0.0,0 STARLINK-5211,1 54086U 22136AM  23208.25222061  .00002197  00000-0  15603-3 0  9999,2 54086  53.2174 292.8422 0001255  98.0671 262.0464 15.08845043 43278,6917.865,95.437,540.598,538.862,0.0
54086.0,STARLINK-5211,PAYLOAD,2023-07-27 14:00:07,15.08846642,8.45e-05,53.2153,291.3535,83.1921,276.9168,0.00013887,1.923e-05,0.0,0 STARLINK-5211,1 54086U 22136AM  23208.58341831  .00001923  00000-0  13887-3 0  9990,2 54086  53.2153 291.3535 0000845  83.1921 276.9168 15.08846642 42855,6917.86,95.437,540.31,539.141,0.0
54086.0,STARLINK-5211,PAYLOAD,2023-07-28 05:53:59,15.08833593,0.0001616,53.2173,288.3801,116.8081,243.3076,-9.5406e-05,-1.806e-05,0.0,0 STARLINK-5211,1 54086U 22136AM  23209.24582551 -.00001806  00000-0 -95406-4 0  9990,2 54086  53.2173 288.3801 0001616 116.8081 243.3076 15.08833593 43428,6917.9,95.438,540.883,538.647,0.0
54086.0,STARLINK-5211,PAYLOAD,2023-07-28 13:50:55,15.0883312,0.0001077,53.2182,286.8948,108.358,251.753,-2.6946e-05,-7.16e-06,0.0,0 STARLINK-5211,1 54086U 22136AM  23209.57703133 -.00000716  00000-0 -26946-4 0  9999,2 54086  53.2182 286.8948 0001077 108.3580 251.7530 15.08833120 43002,6917.901,95.438,540.511,539.021,0.0
